start=new Date('2022-07-13T00:00:00.000Z').valueOf();
sats=[{"MEAN_ELEMENT_THEORY":"SGP4","OBJECT_NAME":"STARLINK-3988","FILE":"3512432","EPOCH":"2022-07-12T22:00:00.999936","TLE_LINE1":"1 52625U 22052AD  22193.91667824 -.01058919  00000-0 -18582-1 0  9991","OBJECT_TYPE":"PAYLOAD","EPHEMERIS_TYPE":"0","PERIAPSIS":"408.097","MEAN_MOTION":"15.52678573","ELEMENT_SET_NO":"999","INCLINATION":"53.2175","CENTER_NAME":"EARTH","APOAPSIS":"409.726","DECAY_DATE":null,"REV_AT_EPOCH":"130","GP_ID":"208002267","RCS_SIZE":"LARGE","BSTAR":"-0.01858200000000","TIME_SYSTEM":"UTC","NORAD_CAT_ID":"52625","OBJECT_ID":"2022-052AD","RA_OF_ASC_NODE":"148.1876","MEAN_MOTION_DOT":"-0.01058919","ECCENTRICITY":"0.00012000","SEMIMAJOR_AXIS":"6787.046","CLASSIFICATION_TYPE":"U","TLE_LINE2":"2 52625  53.2175 148.1876 0001200  60.5340 352.3044 15.52678573  1305","LAUNCH_DATE":"2022-05-14","PERIOD":"92.743","SITE":"AFETR","ARG_OF_PERICENTER":"60.5340","COUNTRY_CODE":"US","MEAN_ANOMALY":"352.3044","MEAN_MOTION_DDOT":"0.0000000000000","REF_FRAME":"TEME"},{"MEAN_ELEMENT_THEORY":"SGP4","OBJECT_NAME":"STARLINK-3990","FILE":"3512432","PERIAPSIS":"417.965","EPOCH":"2022-07-12T22:00:00.999936","TLE_LINE1":"1 52626U 22052AE  22193.91667824 -.01057874  00000-0 -20942-1 0  9994","EPHEMERIS_TYPE":"0","OBJECT_TYPE":"PAYLOAD","ELEMENT_SET_NO":"999","MEAN_MOTION":"15.49321004","INCLINATION":"53.2175","CENTER_NAME":"EARTH","DECAY_DATE":null,"REV_AT_EPOCH":"130","APOAPSIS":"419.462","GP_ID":"208001604","RCS_SIZE":"LARGE","TIME_SYSTEM":"UTC","BSTAR":"-0.02094200000000","NORAD_CAT_ID":"52626","OBJECT_ID":"2022-052AE","MEAN_MOTION_DOT":"-0.01057874","ECCENTRICITY":"0.00011010","RA_OF_ASC_NODE":"148.2206","LAUNCH_DATE":"2022-05-14","SEMIMAJOR_AXIS":"6796.848","CLASSIFICATION_TYPE":"U","TLE_LINE2":"2 52626  53.2175 148.2206 0001101  72.9127 302.3073 15.49321004  1301","COUNTRY_CODE":"US","MEAN_ANOMALY":"302.3073","PERIOD":"92.944","ARG_OF_PERICENTER":"72.9127","SITE":"AFETR","MEAN_MOTION_DDOT":"0.0000000000000","REF_FRAME":"TEME"},{"MEAN_MOTION_DDOT":"0.0000000000000","REF_FRAME":"TEME","MEAN_ANOMALY":"262.5922","COUNTRY_CODE":"US","ARG_OF_PERICENTER":"74.2438","SITE":"AFETR","PERIOD":"92.903","LAUNCH_DATE":"2022-05-14","TLE_LINE2":"2 52627  53.2171 147.0994 0001169  74.2438 262.5922 15.49996225  9708","SEMIMAJOR_AXIS":"6794.874","CLASSIFICATION_TYPE":"U","ECCENTRICITY":"0.00011690","MEAN_MOTION_DOT":"-0.00708598","RA_OF_ASC_NODE":"147.0994","OBJECT_ID":"2022-052AF","NORAD_CAT_ID":"52627","TIME_SYSTEM":"UTC","BSTAR":"-0.01341100000000","RCS_SIZE":"LARGE","GP_ID":"208002779","REV_AT_EPOCH":"970","DECAY_DATE":null,"APOAPSIS":"417.533","INCLINATION":"53.2171","CENTER_NAME":"EARTH","ELEMENT_SET_NO":"999","MEAN_MOTION":"15.49996225","PERIAPSIS":"415.945","TLE_LINE1":"1 52627U 22052AF  22194.16667824 -.00708598  00000-0 -13411-1 0  9991","EPHEMERIS_TYPE":"0","OBJECT_TYPE":"PAYLOAD","EPOCH":"2022-07-13T04:00:00.999936","FILE":"3512448","OBJECT_NAME":"STARLINK-3992","MEAN_ELEMENT_THEORY":"SGP4"},{"MEAN_ELEMENT_THEORY":"SGP4","FILE":"3512448","OBJECT_NAME":"STARLINK-4001","MEAN_MOTION":"15.08880589","ELEMENT_SET_NO":"999","EPOCH":"2022-07-13T04:00:00.999936","EPHEMERIS_TYPE":"0","TLE_LINE1":"1 52628U 22052AG  22194.16667824 -.00040151  00000-0 -25159-2 0  9999","OBJECT_TYPE":"PAYLOAD","PERIAPSIS":"538.308","INCLINATION":"53.2163","CENTER_NAME":"EARTH","GP_ID":"208002781","APOAPSIS":"540.935","DECAY_DATE":null,"REV_AT_EPOCH":"954","BSTAR":"-0.00251590000000","TIME_SYSTEM":"UTC","RCS_SIZE":"LARGE","NORAD_CAT_ID":"52628","OBJECT_ID":"2022-052AG","SEMIMAJOR_AXIS":"6917.756","CLASSIFICATION_TYPE":"U","TLE_LINE2":"2 52628  53.2163 159.5000 0001899  58.0337 309.3719 15.08880589  9540","LAUNCH_DATE":"2022-05-14","RA_OF_ASC_NODE":"159.5000","MEAN_MOTION_DOT":"-0.00040151","ECCENTRICITY":"0.00018990","MEAN_MOTION_DDOT":"0.0000000000000","REF_FRAME":"TEME","PERIOD":"95.435","ARG_OF_PERICENTER":"58.0337","SITE":"AFETR","COUNTRY_CODE":"US","MEAN_ANOMALY":"309.3719"},{"ELEMENT_SET_NO":"999","MEAN_MOTION":"15.49945721","PERIAPSIS":"416.300","EPOCH":"2022-07-13T04:00:00.999936","TLE_LINE1":"1 52629U 22052AH  22194.16667824 -.00063609  00000-0 -11195-2 0  9998","OBJECT_TYPE":"PAYLOAD","EPHEMERIS_TYPE":"0","MEAN_ELEMENT_THEORY":"SGP4","FILE":"3512448","OBJECT_NAME":"STARLINK-4022","GP_ID":"208002488","DECAY_DATE":null,"REV_AT_EPOCH":"970","APOAPSIS":"417.473","CENTER_NAME":"EARTH","INCLINATION":"53.2164","NORAD_CAT_ID":"52629","OBJECT_ID":"2022-052AH","TIME_SYSTEM":"UTC","BSTAR":"-0.00111950000000","RCS_SIZE":"LARGE","MEAN_MOTION_DDOT":"0.0000000000000","REF_FRAME":"TEME","COUNTRY_CODE":"US","MEAN_ANOMALY":"270.9778","PERIOD":"92.906","ARG_OF_PERICENTER":"66.4018","SITE":"AFETR","LAUNCH_DATE":"2022-05-14","SEMIMAJOR_AXIS":"6795.022","CLASSIFICATION_TYPE":"U","TLE_LINE2":"2 52629  53.2164 147.1118 0000863  66.4018 270.9778 15.49945721  9705","MEAN_MOTION_DOT":"-0.00063609","ECCENTRICITY":"0.00008630","RA_OF_ASC_NODE":"147.1118"},{"REF_FRAME":"TEME","MEAN_MOTION_DDOT":"0.0000000000000","COUNTRY_CODE":"US","MEAN_ANOMALY":"269.1667","PERIOD":"92.902","ARG_OF_PERICENTER":"65.7016","SITE":"AFETR","LAUNCH_DATE":"2022-05-14","SEMIMAJOR_AXIS":"6794.810","CLASSIFICATION_TYPE":"U","TLE_LINE2":"2 52630  53.2171 147.0780 0001235  65.7016 269.1667 15.50018223  9700","MEAN_MOTION_DOT":"-0.01200311","ECCENTRICITY":"0.00012350","RA_OF_ASC_NODE":"147.0780","NORAD_CAT_ID":"52630","OBJECT_ID":"2022-052AJ","TIME_SYSTEM":"UTC","BSTAR":"-0.02309700000000","RCS_SIZE":"LARGE","GP_ID":"208002801","DECAY_DATE":null,"REV_AT_EPOCH":"970","APOAPSIS":"417.514","INCLINATION":"53.2171","CENTER_NAME":"EARTH","ELEMENT_SET_NO":"999","MEAN_MOTION":"15.50018223","PERIAPSIS":"415.836","EPOCH":"2022-07-13T04:00:00.999936","OBJECT_TYPE":"PAYLOAD","TLE_LINE1":"1 52630U 22052AJ  22194.16667824 -.01200311  00000-0 -23097-1 0  9997","EPHEMERIS_TYPE":"0","MEAN_ELEMENT_THEORY":"SGP4","FILE":"3512449","OBJECT_NAME":"STARLINK-3989"},{"ELEMENT_SET_NO":"999","MEAN_MOTION":"15.49933642","PERIAPSIS":"416.003","EPOCH":"2022-07-12T22:00:00.999936","TLE_LINE1":"1 52631U 22052AK  22193.91667824 -.00095501  00000-0 -16923-2 0  9993","EPHEMERIS_TYPE":"0","OBJECT_TYPE":"PAYLOAD","MEAN_ELEMENT_THEORY":"SGP4","FILE":"3512432","OBJECT_NAME":"STARLINK-3794","GP_ID":"208002178","DECAY_DATE":null,"REV_AT_EPOCH":"130","APOAPSIS":"417.841","INCLINATION":"53.2162","CENTER_NAME":"EARTH","NORAD_CAT_ID":"52631","OBJECT_ID":"2022-052AK","TIME_SYSTEM":"UTC","BSTAR":"-0.00169230000000","RCS_SIZE":"LARGE","MEAN_MOTION_DDOT":"0.0000000000000","REF_FRAME":"TEME","COUNTRY_CODE":"US","MEAN_ANOMALY":"299.1060","PERIOD":"92.907","ARG_OF_PERICENTER":"84.5150","SITE":"AFETR","LAUNCH_DATE":"2022-05-14","SEMIMAJOR_AXIS":"6795.057","CLASSIFICATION_TYPE":"U","TLE_LINE2":"2 52631  53.2162 148.3096 0001353  84.5150 299.1060 15.49933642  1301","MEAN_MOTION_DOT":"-0.00095501","ECCENTRICITY":"0.00013530","RA_OF_ASC_NODE":"148.3096"},{"OBJECT_ID":"2022-052AL","NORAD_CAT_ID":"52632","BSTAR":"-0.01909000000000","TIME_SYSTEM":"UTC","RCS_SIZE":"LARGE","MEAN_MOTION_DDOT":"0.0000000000000","REF_FRAME":"TEME","ARG_OF_PERICENTER":"66.2352","SITE":"AFETR","PERIOD":"92.788","MEAN_ANOMALY":"342.7273","COUNTRY_CODE":"US","TLE_LINE2":"2 52632  53.2175 148.2125 0001147  66.2352 342.7273 15.51926077  1308","CLASSIFICATION_TYPE":"U","SEMIMAJOR_AXIS":"6789.240","LAUNCH_DATE":"2022-05-14","RA_OF_ASC_NODE":"148.2125","ECCENTRICITY":"0.00011470","MEAN_MOTION_DOT":"-0.01058592","MEAN_MOTION":"15.51926077","ELEMENT_SET_NO":"999","TLE_LINE1":"1 52632U 22052AL  22193.91667824 -.01058592  00000-0 -19090-1 0  9991","EPHEMERIS_TYPE":"0","OBJECT_TYPE":"PAYLOAD","EPOCH":"2022-07-12T22:00:00.999936","PERIAPSIS":"410.326","OBJECT_NAME":"STARLINK-3995","FILE":"3512432","MEAN_ELEMENT_THEORY":"SGP4","GP_ID":"208001710","APOAPSIS":"411.884","REV_AT_EPOCH":"130","DECAY_DATE":null,"INCLINATION":"53.2175","CENTER_NAME":"EARTH"},{"CENTER_NAME":"EARTH","INCLINATION":"53.2163","REV_AT_EPOCH":"130","DECAY_DATE":null,"APOAPSIS":"417.843","GP_ID":"208002268","FILE":"3512432","OBJECT_NAME":"STARLINK-3994","MEAN_ELEMENT_THEORY":"SGP4","PERIAPSIS":"416.014","TLE_LINE1":"1 52633U 22052AM  22193.91667824  .00015528  00000-0  28054-3 0  9993","EPHEMERIS_TYPE":"0","OBJECT_TYPE":"PAYLOAD","EPOCH":"2022-07-12T22:00:00.999936","ELEMENT_SET_NO":"999","MEAN_MOTION":"15.49931519","ECCENTRICITY":"0.00013460","MEAN_MOTION_DOT":"0.00015528","RA_OF_ASC_NODE":"148.3469","LAUNCH_DATE":"2022-05-14","TLE_LINE2":"2 52633  53.2163 148.3469 0001346  92.8332 293.1698 15.49931519  1306","SEMIMAJOR_AXIS":"6795.063","CLASSIFICATION_TYPE":"U","MEAN_ANOMALY":"293.1698","COUNTRY_CODE":"US","SITE":"AFETR","ARG_OF_PERICENTER":"92.8332","PERIOD":"92.907","MEAN_MOTION_DDOT":"0.0000000000000","REF_FRAME":"TEME","RCS_SIZE":"LARGE","TIME_SYSTEM":"UTC","BSTAR":"0.00028054000000","OBJECT_ID":"2022-052AM","NORAD_CAT_ID":"52633"},{"INCLINATION":"53.2170","CENTER_NAME":"EARTH","GP_ID":"208002499","APOAPSIS":"417.833","REV_AT_EPOCH":"970","DECAY_DATE":null,"FILE":"3512449","OBJECT_NAME":"STARLINK-3974","MEAN_ELEMENT_THEORY":"SGP4","MEAN_MOTION":"15.49913853","ELEMENT_SET_NO":"999","OBJECT_TYPE":"PAYLOAD","TLE_LINE1":"1 52634U 22052AN  22194.16667824 -.00161442  00000-0 -28925-2 0  9997","EPHEMERIS_TYPE":"0","EPOCH":"2022-07-13T04:00:00.999936","PERIAPSIS":"416.127","TLE_LINE2":"2 52634  53.2170 147.1199 0001255  69.9432 268.5334 15.49913853  9703","CLASSIFICATION_TYPE":"U","SEMIMAJOR_AXIS":"6795.115","LAUNCH_DATE":"2022-05-14","RA_OF_ASC_NODE":"147.1199","ECCENTRICITY":"0.00012550","MEAN_MOTION_DOT":"-0.00161442","MEAN_MOTION_DDOT":"0.0000000000000","REF_FRAME":"TEME","SITE":"AFETR","ARG_OF_PERICENTER":"69.9432","PERIOD":"92.908","MEAN_ANOMALY":"268.5334","COUNTRY_CODE":"US","BSTAR":"-0.00289250000000","TIME_SYSTEM":"UTC","RCS_SIZE":"LARGE","OBJECT_ID":"2022-052AN","NORAD_CAT_ID":"52634"}];
